0 ARIANE 1 DEB
1 17325U 85056D   13282.38197616  .00002571  00000-0  11757-2 0  4217
2 17325 007.0999 218.6007 6550016 100.6358 021.5422 03.21739734212576
0 ARIANE 1 DEB
1 17325U 85056D   13283.58355346  .00004658  00000-0  19872-2 0  4232
2 17325 007.1036 217.9028 6551715 102.0608 333.3036 03.21743308212617
0 ARIANE 1 DEB
1 17325U 85056D   13283.67911024  .00002454  00000-0  12047-2 0  4221
2 17325 007.0994 217.7715 6549665 102.2526 083.9549 03.21749260212612
0 ARIANE 1 DEB
1 17325U 85056D   13286.42763253  .00002207  00000-0  11542-2 0  4243
2 17325 007.0988 216.0158 6549035 105.6795 027.5803 03.21763968212702
0 ARIANE 1 DEB
1 17325U 85056D   13287.97827477  .00002893  00000-0  14272-2 0  4258
2 17325 007.0987 215.0261 6548647 107.6126 023.7567 03.21777747212753
0 ARIANE 1 DEB
1 17325U 85056D   13289.20986447  .00002633  00000-0  12534-2 0  4261
2 17325 007.0989 214.2412 6548366 109.1442 010.4215 03.21786692212796
0 ARIANE 1 DEB
1 17325U 85056D   13290.46457510  .00002930  00000-0  13477-2 0  4273
2 17325 007.0988 213.4382 6548064 110.7082 023.9144 03.21793252212830
0 ARIANE 1 DEB
1 17325U 85056D   13291.39770331  .00002881  00000-0  13060-2 0  4289
2 17325 007.0990 212.8432 6547840 111.8687 024.8944 03.21798357212868
0 ARIANE 1 DEB
1 17325U 85056D   13292.99279709  .00002897  00000-0  13206-2 0  4299
2 17325 007.0990 211.8250 6547467 113.8522 072.7716 03.21807692212918
0 ARIANE 1 DEB
1 17325U 85056D   13294.18378178  .00002554  00000-0  11888-2 0  4308
2 17325 007.0992 211.0673 6547249 115.3301 012.5253 03.21816249212951
0 ARIANE 1 DEB
1 17325U 85056D   13295.44307661  .00002494  00000-0  12176-2 0  4312
2 17325 007.0992 210.2639 6546938 116.8952 031.4570 03.21822847212993
